start=new Date('2022-07-07T00:00:00.000Z').valueOf();
sats=[{"MEAN_MOTION_DDOT":"0.0000000000000","EPOCH":"2022-07-06T14:00:01.000224","OBJECT_TYPE":"PAYLOAD","DECAY_DATE":null,"BSTAR":"-0.00101540000000","MEAN_MOTION_DOT":"-0.00016420","SEMIMAJOR_AXIS":"6917.826","RCS_SIZE":"LARGE","CENTER_NAME":"EARTH","ARG_OF_PERICENTER":"53.1768","TIME_SYSTEM":"UTC","OBJECT_ID":"2022-025AK","TLE_LINE2":"2 51989  53.2188 304.0645 0001605  53.1768 102.7289 15.08857725  1306","REF_FRAME":"TEME","RA_OF_ASC_NODE":"304.0645","MEAN_MOTION":"15.08857725","MEAN_ANOMALY":"102.7289","ECCENTRICITY":"0.00016050","TLE_LINE1":"1 51989U 22025AK  22187.58334491 -.00016420  00000-0 -10154-2 0  9998","GP_ID":"207541264","PERIAPSIS":"538.581","EPHEMERIS_TYPE":"0","OBJECT_NAME":"STARLINK-3642","LAUNCH_DATE":"2022-03-09","INCLINATION":"53.2188","SITE":"AFETR","COUNTRY_CODE":"US","PERIOD":"95.436","NORAD_CAT_ID":"51989","CLASSIFICATION_TYPE":"U","FILE":"3508782","MEAN_ELEMENT_THEORY":"SGP4","REV_AT_EPOCH":"130","APOAPSIS":"540.802","ELEMENT_SET_NO":"999"},{"GP_ID":"207511780","PERIAPSIS":"538.670","TLE_LINE1":"1 51990U 22025AL  22187.58334491  .00000307  00000-0  37390-4 0  9998","MEAN_ANOMALY":"238.0858","ECCENTRICITY":"0.00016660","REF_FRAME":"TEME","MEAN_MOTION":"15.08814750","RA_OF_ASC_NODE":"284.0720","CLASSIFICATION_TYPE":"U","PERIOD":"95.439","NORAD_CAT_ID":"51990","FILE":"3508520","REV_AT_EPOCH":"1982","MEAN_ELEMENT_THEORY":"SGP4","APOAPSIS":"540.975","ELEMENT_SET_NO":"999","COUNTRY_CODE":"US","INCLINATION":"53.2135","SITE":"AFETR","EPHEMERIS_TYPE":"0","OBJECT_NAME":"STARLINK-3657","LAUNCH_DATE":"2022-03-09","DECAY_DATE":null,"EPOCH":"2022-07-06T14:00:01.000224","OBJECT_TYPE":"PAYLOAD","MEAN_MOTION_DDOT":"0.0000000000000","TIME_SYSTEM":"UTC","ARG_OF_PERICENTER":"87.8087","OBJECT_ID":"2022-025AL","TLE_LINE2":"2 51990  53.2135 284.0720 0001666  87.8087 238.0858 15.08814750 19828","SEMIMAJOR_AXIS":"6917.958","RCS_SIZE":"LARGE","CENTER_NAME":"EARTH","MEAN_MOTION_DOT":"0.00000307","BSTAR":"0.00003739000000"},{"DECAY_DATE":null,"OBJECT_TYPE":"PAYLOAD","EPOCH":"2022-07-06T14:00:01.000224","MEAN_MOTION_DDOT":"0.0000000000000","TIME_SYSTEM":"UTC","ARG_OF_PERICENTER":"48.3070","TLE_LINE2":"2 51991  53.2194 304.0649 0001723  48.3070 147.5813 15.08848205  1306","OBJECT_ID":"2022-025AM","RCS_SIZE":"LARGE","SEMIMAJOR_AXIS":"6917.855","CENTER_NAME":"EARTH","BSTAR":"-0.00085694000000","MEAN_MOTION_DOT":"-0.00013904","GP_ID":"207540262","PERIAPSIS":"538.528","TLE_LINE1":"1 51991U 22025AM  22187.58334491 -.00013904  00000-0 -85694-3 0  9997","ECCENTRICITY":"0.00017230","MEAN_ANOMALY":"147.5813","REF_FRAME":"TEME","RA_OF_ASC_NODE":"304.0649","MEAN_MOTION":"15.08848205","FILE":"3508782","NORAD_CAT_ID":"51991","PERIOD":"95.437","CLASSIFICATION_TYPE":"U","ELEMENT_SET_NO":"999","APOAPSIS":"540.912","MEAN_ELEMENT_THEORY":"SGP4","REV_AT_EPOCH":"130","COUNTRY_CODE":"US","INCLINATION":"53.2194","SITE":"AFETR","EPHEMERIS_TYPE":"0","LAUNCH_DATE":"2022-03-09","OBJECT_NAME":"STARLINK-3652"},{"RCS_SIZE":"LARGE","SEMIMAJOR_AXIS":"6917.875","CENTER_NAME":"EARTH","ARG_OF_PERICENTER":"65.5332","TIME_SYSTEM":"UTC","OBJECT_ID":"2022-025AN","TLE_LINE2":"2 51992  53.2162 284.0751 0001281  65.5332 320.3705 15.08841650 19840","MEAN_MOTION_DOT":"-0.00003152","BSTAR":"-0.00018005000000","DECAY_DATE":null,"MEAN_MOTION_DDOT":"0.0000000000000","EPOCH":"2022-07-06T14:00:01.000224","OBJECT_TYPE":"PAYLOAD","COUNTRY_CODE":"US","PERIOD":"95.437","NORAD_CAT_ID":"51992","CLASSIFICATION_TYPE":"U","FILE":"3508513","REV_AT_EPOCH":"1984","MEAN_ELEMENT_THEORY":"SGP4","ELEMENT_SET_NO":"999","APOAPSIS":"540.627","EPHEMERIS_TYPE":"0","OBJECT_NAME":"STARLINK-3643","LAUNCH_DATE":"2022-03-09","INCLINATION":"53.2162","SITE":"AFETR","TLE_LINE1":"1 51992U 22025AN  22187.58334491 -.00003152  00000-0 -18005-3 0  9994","GP_ID":"207511535","PERIAPSIS":"538.854","REF_FRAME":"TEME","MEAN_MOTION":"15.08841650","RA_OF_ASC_NODE":"284.0751","MEAN_ANOMALY":"320.3705","ECCENTRICITY":"0.00012810"},{"SITE":"AFETR","INCLINATION":"53.2209","LAUNCH_DATE":"2022-03-09","OBJECT_NAME":"STARLINK-3648","EPHEMERIS_TYPE":"0","ELEMENT_SET_NO":"999","APOAPSIS":"540.895","REV_AT_EPOCH":"1956","MEAN_ELEMENT_THEORY":"SGP4","FILE":"3508513","CLASSIFICATION_TYPE":"U","PERIOD":"95.437","NORAD_CAT_ID":"51993","COUNTRY_CODE":"US","MEAN_ANOMALY":"201.7196","ECCENTRICITY":"0.00016680","MEAN_MOTION":"15.08841471","RA_OF_ASC_NODE":"304.0619","REF_FRAME":"TEME","PERIAPSIS":"538.587","GP_ID":"207511525","TLE_LINE1":"1 51993U 22025AP  22187.58334491 -.00011662  00000-0 -71579-3 0  9995","BSTAR":"-0.00071579000000","MEAN_MOTION_DOT":"-0.00011662","TLE_LINE2":"2 51993  53.2209 304.0619 0001668  54.2166 201.7196 15.08841471 19564","OBJECT_ID":"2022-025AP","TIME_SYSTEM":"UTC","ARG_OF_PERICENTER":"54.2166","CENTER_NAME":"EARTH","RCS_SIZE":"LARGE","SEMIMAJOR_AXIS":"6917.876","OBJECT_TYPE":"PAYLOAD","EPOCH":"2022-07-06T14:00:01.000224","MEAN_MOTION_DDOT":"0.0000000000000","DECAY_DATE":null},{"MEAN_MOTION_DOT":"0.00034682","BSTAR":"0.00218730000000","CENTER_NAME":"EARTH","SEMIMAJOR_AXIS":"6917.920","RCS_SIZE":"LARGE","OBJECT_ID":"2022-025AQ","TLE_LINE2":"2 51994  53.2164 283.7010 0001386  55.6764  83.1435 15.08826964 19859","ARG_OF_PERICENTER":"55.6764","TIME_SYSTEM":"UTC","MEAN_MOTION_DDOT":"0.0000000000000","OBJECT_TYPE":"PAYLOAD","EPOCH":"2022-07-06T16:00:00.999936","DECAY_DATE":null,"OBJECT_NAME":"STARLINK-3647","LAUNCH_DATE":"2022-03-09","EPHEMERIS_TYPE":"0","SITE":"AFETR","INCLINATION":"53.2164","COUNTRY_CODE":"US","MEAN_ELEMENT_THEORY":"SGP4","REV_AT_EPOCH":"1985","ELEMENT_SET_NO":"999","APOAPSIS":"540.744","PERIOD":"95.438","NORAD_CAT_ID":"51994","CLASSIFICATION_TYPE":"U","FILE":"3508752","RA_OF_ASC_NODE":"283.7010","MEAN_MOTION":"15.08826964","REF_FRAME":"TEME","ECCENTRICITY":"0.00013860","MEAN_ANOMALY":"83.1435","TLE_LINE1":"1 51994U 22025AQ  22187.66667824  .00034682  00000-0  21873-2 0  9990","PERIAPSIS":"538.826","GP_ID":"207517280"},{"MEAN_MOTION_DOT":"-0.00001257","BSTAR":"-0.00006091600000","SEMIMAJOR_AXIS":"6917.912","RCS_SIZE":"LARGE","CENTER_NAME":"EARTH","ARG_OF_PERICENTER":"85.0193","TIME_SYSTEM":"UTC","TLE_LINE2":"2 51995  53.2134 284.0727 0001385  85.0193 260.9061 15.08829519 19813","OBJECT_ID":"2022-025AR","MEAN_MOTION_DDOT":"0.0000000000000","EPOCH":"2022-07-06T14:00:01.000224","OBJECT_TYPE":"PAYLOAD","DECAY_DATE":null,"EPHEMERIS_TYPE":"0","LAUNCH_DATE":"2022-03-09","OBJECT_NAME":"STARLINK-3636","INCLINATION":"53.2134","SITE":"AFETR","COUNTRY_CODE":"US","FILE":"3508516","CLASSIFICATION_TYPE":"U","PERIOD":"95.438","NORAD_CAT_ID":"51995","ELEMENT_SET_NO":"999","APOAPSIS":"540.736","REV_AT_EPOCH":"1981","MEAN_ELEMENT_THEORY":"SGP4","REF_FRAME":"TEME","RA_OF_ASC_NODE":"284.0727","MEAN_MOTION":"15.08829519","ECCENTRICITY":"0.00013850","MEAN_ANOMALY":"260.9061","TLE_LINE1":"1 51995U 22025AR  22187.58334491 -.00001257  00000-0 -60916-4 0  9990","GP_ID":"207511839","PERIAPSIS":"538.819"},{"OBJECT_TYPE":"PAYLOAD","EPOCH":"2022-07-06T14:00:01.000224","MEAN_MOTION_DDOT":"0.0000000000000","DECAY_DATE":null,"BSTAR":"-0.00023618000000","MEAN_MOTION_DOT":"-0.00004044","TLE_LINE2":"2 51996  53.2165 284.0747 0001390  77.2024 348.7459 15.08829529  1304","OBJECT_ID":"2022-025AS","TIME_SYSTEM":"UTC","ARG_OF_PERICENTER":"77.2024","CENTER_NAME":"EARTH","SEMIMAJOR_AXIS":"6917.912","RCS_SIZE":"LARGE","ECCENTRICITY":"0.00013900","MEAN_ANOMALY":"348.7459","RA_OF_ASC_NODE":"284.0747","MEAN_MOTION":"15.08829529","REF_FRAME":"TEME","PERIAPSIS":"538.816","GP_ID":"207541014","TLE_LINE1":"1 51996U 22025AS  22187.58334491 -.00004044  00000-0 -23618-3 0  9995","SITE":"AFETR","INCLINATION":"53.2165","LAUNCH_DATE":"2022-03-09","OBJECT_NAME":"STARLINK-3538","EPHEMERIS_TYPE":"0","APOAPSIS":"540.739","ELEMENT_SET_NO":"999","REV_AT_EPOCH":"130","MEAN_ELEMENT_THEORY":"SGP4","FILE":"3508782","NORAD_CAT_ID":"51996","PERIOD":"95.438","CLASSIFICATION_TYPE":"U","COUNTRY_CODE":"US"},{"MEAN_MOTION_DDOT":"0.0000000000000","OBJECT_TYPE":"PAYLOAD","EPOCH":"2022-07-06T14:00:01.000224","DECAY_DATE":null,"MEAN_MOTION_DOT":"-0.00001412","BSTAR":"-0.00007065800000","SEMIMAJOR_AXIS":"6917.911","RCS_SIZE":"MEDIUM","CENTER_NAME":"EARTH","ARG_OF_PERICENTER":"78.6525","TIME_SYSTEM":"UTC","TLE_LINE2":"2 51997  53.2151 284.0740 0001553  78.6525 287.2774 15.08830005 19818","OBJECT_ID":"2022-025AT","REF_FRAME":"TEME","RA_OF_ASC_NODE":"284.0740","MEAN_MOTION":"15.08830005","MEAN_ANOMALY":"287.2774","ECCENTRICITY":"0.00015530","TLE_LINE1":"1 51997U 22025AT  22187.58334491 -.00001412  00000-0 -70658-4 0  9999","GP_ID":"207511864","PERIAPSIS":"538.702","EPHEMERIS_TYPE":"0","LAUNCH_DATE":"2022-03-09","OBJECT_NAME":"STARLINK-3589","INCLINATION":"53.2151","SITE":"AFETR","COUNTRY_CODE":"US","FILE":"3508526","PERIOD":"95.438","NORAD_CAT_ID":"51997","CLASSIFICATION_TYPE":"U","ELEMENT_SET_NO":"999","APOAPSIS":"540.850","MEAN_ELEMENT_THEORY":"SGP4","REV_AT_EPOCH":"1981"},{"MEAN_MOTION_DDOT":"0.0000000000000","OBJECT_TYPE":"PAYLOAD","EPOCH":"2022-07-06T14:00:01.000224","DECAY_DATE":null,"MEAN_MOTION_DOT":"0.00004104","BSTAR":"0.00027592000000","CENTER_NAME":"EARTH","RCS_SIZE":"LARGE","SEMIMAJOR_AXIS":"6917.924","TLE_LINE2":"2 51998  53.2152 284.0543 0001352  74.2618 151.7093 15.08825850 19825","OBJECT_ID":"2022-025AU","ARG_OF_PERICENTER":"74.2618","TIME_SYSTEM":"UTC","MEAN_MOTION":"15.08825850","RA_OF_ASC_NODE":"284.0543","REF_FRAME":"TEME","MEAN_ANOMALY":"151.7093","ECCENTRICITY":"0.00013520","TLE_LINE1":"1 51998U 22025AU  22187.58334491  .00004104  00000-0  27592-3 0  9997","PERIAPSIS":"538.853","GP_ID":"207511644","LAUNCH_DATE":"2022-03-09","OBJECT_NAME":"STARLINK-3618","EPHEMERIS_TYPE":"0","SITE":"AFETR","INCLINATION":"53.2152","COUNTRY_CODE":"US","ELEMENT_SET_NO":"999","APOAPSIS":"540.724","REV_AT_EPOCH":"1982","MEAN_ELEMENT_THEORY":"SGP4","FILE":"3508522","PERIOD":"95.438","NORAD_CAT_ID":"51998","CLASSIFICATION_TYPE":"U"}];
